NORAD_CAT_ID,OBJECT_NAME,OBJECT_TYPE,EPOCH,MEAN_MOTION,ECCENTRICITY,INCLINATION,RA_OF_ASC_NODE,ARG_OF_PERICENTER,MEAN_ANOMALY,BSTAR,MEAN_MOTION_DOT,MEAN_MOTION_DDOT,TLE_LINE0,TLE_LINE1,TLE_LINE2,SEMIMAJOR_AXIS,PERIOD,APOGEE,PERIGEE,DECAYED
53621.0,STARLINK-4608,PAYLOAD,2023-12-06 04:28:19,15.08850698,0.0002216,53.2189,335.4186,75.4668,284.657,4.8506e-06,-2.11e-06,0.0,0 STARLINK-4608,1 53621U 22104AK  23340.18633402 -.00000211  00000-0  48506-5 0  9998,2 53621  53.2189 335.4186 0002216  75.4668 284.6570 15.08850698 70597,6917.848,95.437,541.246,538.18,0.0
53621.0,STARLINK-4608,PAYLOAD,2023-12-06 06:03:42,15.08850447,0.0002233,53.2186,335.1211,74.6605,285.4634,1.6773e-06,-2.62e-06,0.0,0 STARLINK-4608,1 53621U 22104AK  23340.25257366 -.00000262  00000-0  16773-5 0  9994,2 53621  53.2186 335.1211 0002233  74.6605 285.4634 15.08850447 71178,6917.848,95.437,541.258,538.169,0.0
53621.0,STARLINK-4608,PAYLOAD,2023-12-07 04:19:06,15.08843312,0.0002232,53.2181,330.9561,74.7692,285.3547,-7.6894e-05,-1.512e-05,0.0,0 STARLINK-4608,1 53621U 22104AK  23341.17993489 -.00001512  00000-0 -76894-4 0  9998,2 53621  53.2181 330.9561 0002232  74.7692 285.3547 15.08843312 70747,6917.87,95.437,541.279,538.191,0.0
53621.0,STARLINK-4608,PAYLOAD,2023-12-07 09:05:15,15.08847314,0.0002069,53.219,330.0615,86.2472,273.8757,-7.1683e-05,-1.429e-05,0.0,0 STARLINK-4608,1 53621U 22104AK  23341.37865442 -.00001429  00000-0 -71683-4 0  9995,2 53621  53.2190 330.0615 0002069  86.2472 273.8757 15.08847314 71348,6917.858,95.437,541.154,538.292,0.0
53621.0,STARLINK-4608,PAYLOAD,2023-12-08 08:56:02,15.08840695,0.0001997,53.2184,325.6006,100.6427,259.4791,6.4563e-05,7.4e-06,0.0,0 STARLINK-4608,1 53621U 22104AK  23342.37225241  .00000740  00000-0  64563-4 0  9995,2 53621  53.2184 325.6006 0001997 100.6427 259.4791 15.08840695 70921,6917.878,95.438,541.125,538.362,0.0
53621.0,STARLINK-4608,PAYLOAD,2023-12-09 04:00:40,15.08835795,0.0001924,53.2184,322.0314,95.5184,264.6027,5.1848e-05,5.37e-06,0.0,0 STARLINK-4608,1 53621U 22104AK  23343.16713732  .00000537  00000-0  51848-4 0  9996,2 53621  53.2184 322.0314 0001924  95.5184 264.6027 15.08835795 71045,6917.893,95.438,541.089,538.427,0.0
53621.0,STARLINK-4608,PAYLOAD,2023-12-09 08:46:50,15.08835675,0.0001943,53.2184,321.1397,97.0752,263.0461,4.679e-05,4.56e-06,0.0,0 STARLINK-4608,1 53621U 22104AK  23343.36585816  .00000456  00000-0  46790-4 0  9998,2 53621  53.2184 321.1397 0001943  97.0752 263.0461 15.08835675 71643,6917.894,95.438,541.103,538.414,0.0
53621.0,STARLINK-4608,PAYLOAD,2023-12-11 03:42:15,15.08835543,0.0001926,53.2183,313.1122,100.7205,259.4005,3.6634e-05,2.95e-06,0.0,0 STARLINK-4608,1 53621U 22104AK  23345.15434238  .00000295  00000-0  36634-4 0  9995,2 53621  53.2183 313.1122 0001926 100.7205 259.4005 15.08835543 71349,6917.894,95.438,541.091,538.427,0.0
53621.0,STARLINK-4608,PAYLOAD,2023-12-12 03:33:01,15.08843528,0.0001954,53.2181,308.6508,101.5003,258.6209,7.2223e-05,8.62e-06,0.0,0 STARLINK-4608,1 53621U 22104AK  23346.14793652  .00000862  00000-0  72223-4 0  9997,2 53621  53.2181 308.6508 0001954 101.5003 258.6209 15.08843528 71495,6917.87,95.437,541.086,538.383,0.0
53621.0,STARLINK-4608,PAYLOAD,2023-12-12 05:08:24,15.08844954,0.0001789,53.2176,308.3557,88.6358,271.4839,0.00011236,1.501e-05,0.0,0 STARLINK-4608,1 53621U 22104AK  23346.21417689  .00001501  00000-0  11236-3 0  9995,2 53621  53.2176 308.3557 0001789  88.6358 271.4839 15.08844954 72075,6917.865,95.437,540.968,538.493,0.0
53621.0,STARLINK-4608,PAYLOAD,2023-12-13 03:23:49,15.08838542,0.0001822,53.2177,304.1929,85.8897,274.2303,3.482e-05,2.66e-06,0.0,0 STARLINK-4608,1 53621U 22104AK  23347.14154383  .00000266  00000-0  34820-4 0  9999,2 53621  53.2177 304.1929 0001822  85.8897 274.2303 15.08838542 71643,6917.885,95.438,541.01,538.489,0.0
53621.0,STARLINK-4608,PAYLOAD,2023-12-13 04:59:12,15.08841002,0.0001799,53.2182,303.8956,86.9804,273.1394,3.8388e-05,3.23e-06,0.0,0 STARLINK-4608,1 53621U 22104AK  23347.20778187  .00000323  00000-0  38388-4 0  9997,2 53621  53.2182 303.8956 0001799  86.9804 273.1394 15.08841002 72226,6917.877,95.437,540.987,538.498,0.0
53621.0,STARLINK-4608,PAYLOAD,2023-12-14 03:14:36,15.0884677,0.0001657,53.217,299.7353,94.6674,265.4508,2.3176e-06,-2.51e-06,0.0,0 STARLINK-4608,1 53621U 22104AK  23348.13513919 -.00000251  00000-0  23176-5 0  9991,2 53621  53.2170 299.7353 0001657  94.6674 265.4508 15.08846770 71790,6917.86,95.437,540.871,538.578,0.0
53621.0,STARLINK-4608,PAYLOAD,2023-12-15 03:05:22,15.08850665,0.0001729,53.2177,295.2744,85.0656,275.0534,8.5822e-05,1.078e-05,0.0,0 STARLINK-4608,1 53621U 22104AK  23349.12873270  .00001078  00000-0  85822-4 0  9992,2 53621  53.2177 295.2744 0001729  85.0656 275.0534 15.08850665 72511,6917.848,95.437,540.909,538.517,0.0
53621.0,STARLINK-4608,PAYLOAD,2023-12-16 02:56:10,15.08836382,0.0001635,53.2179,290.8103,102.0171,258.1005,-2.5559e-05,-6.95e-06,0.0,0 STARLINK-4608,1 53621U 22104AK  23350.12234589 -.00000695  00000-0 -25559-4 0  9995,2 53621  53.2179 290.8103 0001635 102.0171 258.1005 15.08836382 72099,6917.891,95.438,540.888,538.625,0.0
53621.0,STARLINK-4608,PAYLOAD,2023-12-17 02:46:57,15.088465,0.000165,53.2177,286.352,110.5093,249.6076,1.8013e-05,-1e-08,0.0,0 STARLINK-4608,1 53621U 22104AK  23351.11593964 -.00000001  00000-0  18013-4 0  9997,2 53621  53.2177 286.3520 0001650 110.5093 249.6076 15.08846500 72247,6917.861,95.437,540.867,538.584,0.0
53621.0,STARLINK-4608,PAYLOAD,2023-12-18 01:02:21,15.08833019,0.0001623,53.2184,282.1806,107.9778,252.1392,9.09e-05,1.159e-05,0.0,0 STARLINK-4608,1 53621U 22104AK  23352.04330856  .00001159  00000-0  90900-4 0  9998,2 53621  53.2184 282.1806 0001623 107.9778 252.1392 15.08833019 72382,6917.902,95.438,540.89,538.644,0.0
53621.0,STARLINK-4608,PAYLOAD,2023-12-19 00:53:09,15.08836732,0.0001514,53.2177,277.7258,94.5102,265.6063,-2.1168e-05,-6.25e-06,0.0,0 STARLINK-4608,1 53621U 22104AK  23353.03691555 -.00000625  00000-0 -21168-4 0  9993,2 53621  53.2177 277.7258 0001514  94.5102 265.6063 15.08836732 73106,6917.89,95.438,540.803,538.708,0.0
53621.0,STARLINK-4608,PAYLOAD,2023-12-20 02:19:19,15.08838523,0.0001526,53.2177,272.9705,80.9982,279.1183,0.0003467,5.234e-05,0.0,0 STARLINK-4608,1 53621U 22104AK  23354.09674770  .00005234  00000-0  34670-3 0  9990,2 53621  53.2177 272.9705 0001526  80.9982 279.1183 15.08838523 72694,6917.885,95.438,540.806,538.694,0.0
53621.0,STARLINK-4608,PAYLOAD,2023-12-21 02:10:06,15.08851393,0.000205,53.2179,268.5105,65.7707,294.3499,0.00017168,2.446e-05,0.0,0 STARLINK-4608,1 53621U 22104AK  23355.09034735  .00002446  00000-0  17168-3 0  9997,2 53621  53.2179 268.5105 0002050  65.7707 294.3499 15.08851393 73410,6917.846,95.437,541.129,538.292,0.0
53621.0,STARLINK-4608,PAYLOAD,2023-12-21 22:50:06,15.08842144,0.0001319,53.2171,264.6401,119.9208,240.1916,-0.00010094,-1.894e-05,0.0,0 STARLINK-4608,1 53621U 22104AK  23355.95146550 -.00001894  00000-0 -10094-3 0  9990,2 53621  53.2171 264.6401 0001319 119.9208 240.1916 15.08842144 73544,6917.874,95.437,540.651,538.826,0.0
53621.0,STARLINK-4608,PAYLOAD,2023-12-22 00:25:29,15.08843686,0.0001265,53.2162,264.346,98.6289,261.4846,-5.7554e-05,-1.204e-05,0.0,0 STARLINK-4608,1 53621U 22104AK  23356.01770635 -.00001204  00000-0 -57554-4 0  9993,2 53621  53.2162 264.3460 0001265  98.6289 261.4846 15.08843686 72985,6917.869,95.437,540.609,538.859,0.0
53621.0,STARLINK-4608,PAYLOAD,2023-12-22 22:40:53,15.08846072,0.0001415,53.2166,260.1828,69.4595,290.6549,5.5443e-05,5.95e-06,0.0,0 STARLINK-4608,1 53621U 22104AK  23356.94506939  .00000595  00000-0  55443-4 0  9994,2 53621  53.2166 260.1828 0001415  69.4595 290.6549 15.08846072 73699,6917.862,95.437,540.706,538.748,0.0
53621.0,STARLINK-4608,PAYLOAD,2023-12-23 00:16:16,15.08848396,0.0001332,53.2157,259.8874,80.9102,279.2041,0.00010018,1.307e-05,0.0,0 STARLINK-4608,1 53621U 22104AK  23357.01130653  .00001307  00000-0  10018-3 0  9999,2 53621  53.2157 259.8874 0001332  80.9102 279.2041 15.08848396 73708,6917.855,95.437,540.641,538.798,0.0
53621.0,STARLINK-4608,PAYLOAD,2023-12-23 17:45:31,15.08841269,0.0001223,53.2162,256.6141,95.9457,264.1675,0.00015867,2.238e-05,0.0,0 STARLINK-4608,1 53621U 22104AK  23357.73995204  .00002238  00000-0  15867-3 0  9990,2 53621  53.2162 256.6141 0001223  95.9457 264.1675 15.08841269 73241,6917.877,95.437,540.588,538.895,0.0
53621.0,STARLINK-4608,PAYLOAD,2023-12-23 22:31:41,15.08842297,0.0001317,53.216,255.7223,103.3413,256.7726,0.00014883,2.082e-05,0.0,0 STARLINK-4608,1 53621U 22104AK  23357.93867105  .00002082  00000-0  14883-3 0  9994,2 53621  53.2160 255.7223 0001317 103.3413 256.7726 15.08842297 73842,6917.873,95.437,540.649,538.827,0.0
53621.0,STARLINK-4608,PAYLOAD,2023-12-24 03:17:50,15.08845142,0.0001224,53.2164,254.8285,105.7777,254.335,0.00017495,2.498e-05,0.0,0 STARLINK-4608,1 53621U 22104AK  23358.13738896  .00002498  00000-0  17495-3 0  9994,2 53621  53.2164 254.8285 0001224 105.7777 254.3350 15.08845142 73872,6917.865,95.437,540.576,538.883,0.0
53621.0,STARLINK-4608,PAYLOAD,2023-12-24 22:22:28,15.08843118,0.0001498,53.2163,251.2589,111.6851,248.4301,1.3736e-05,-6.9e-07,0.0,0 STARLINK-4608,1 53621U 22104AK  23358.93226926 -.00000069  00000-0  13736-4 0  9996,2 53621  53.2163 251.2589 0001498 111.6851 248.4301 15.08843118 73995,6917.871,95.437,540.772,538.7,0.0
53621.0,STARLINK-4608,PAYLOAD,2023-12-24 23:57:51,15.08848249,0.0001274,53.2161,250.9605,105.3356,254.7777,5.6996e-05,6.2e-06,0.0,0 STARLINK-4608,1 53621U 22104AK  23358.99850772  .00000620  00000-0  56996-4 0  9991,2 53621  53.2161 250.9605 0001274 105.3356 254.7777 15.08848249 73436,6917.855,95.437,540.602,538.839,0.0
53621.0,STARLINK-4608,PAYLOAD,2023-12-25 22:13:15,15.08837171,0.000152,53.2162,246.8003,107.8283,252.2875,3.5178e-06,-2.32e-06,0.0,0 STARLINK-4608,1 53621U 22104AK  23359.92587420 -.00000232  00000-0  35178-5 0  9992,2 53621  53.2162 246.8003 0001520 107.8283 252.2875 15.08837171 74146,6917.889,95.438,540.806,538.703,0.0
